{"type": "FeatureCollection", "features": [ {"type": "Feature", "properties": {"norad_id": 58662, "name": "TIANMU-1 21", "group": "weather", "lat": 82.5490280926028, "lon": 12.676038813410583, "alt_km": 467.7468067159325, "timestamp": "2025-12-12T11:38:31.059638+00:00", "meta": {"OBJECT_NAME": "TIANMU-1 21", "OBJECT_ID": "2023-208C", "EPOCH": "2025-12-12T04:58:46.106112", "MEAN_MOTION": 15.31533176, "ECCENTRICITY": 0.0005907, "INCLINATION": 97.437, "RA_OF_ASC_NODE": 99.5985, "ARG_OF_PERICENTER": 262.3895, "MEAN_ANOMALY": 97.6675, "EPHEMERIS_TYPE": 0, "CLASSIFICATION_TYPE": "U", "NORAD_CAT_ID": 58662, "ELEMENT_SET_NO": 999, "REV_AT_EPOCH": 10891, "BSTAR": 0.00054906, "MEAN_MOTION_DOT": 0.00016667, "MEAN_MOTION_DDOT": 0}, "tle": {"line1": "1 58662U 23208C   25346.20747808  .00016667  00000+0  54906-3 0  9990", "line2": "2 58662  97.4370  99.5985 0005907 262.3895  97.6675 15.31533176108914"}}, "geometry": {"type": "Point", "coordinates": [12.676038813410583, 82.5490280926028]}}, {"type": "Feature", "properties": {"norad_id": 58663, "name": "TIANMU-1 22", "group": "weather", "lat": 15.303815554433896, "lon": 95.53280008368269, "alt_km": 483.78968230623923, "timestamp": "2025-12-12T11:38:31.059648+00:00", "meta": {"OBJECT_NAME": "TIANMU-1 22", "OBJECT_ID": "2023-208D", "EPOCH": "2025-12-12T03:42:50.550336", "MEAN_MOTION": 15.2758859, "ECCENTRICITY": 0.0002694, "INCLINATION": 97.4377, "RA_OF_ASC_NODE": 97.252, "ARG_OF_PERICENTER": 290.1606, "MEAN_ANOMALY": 69.9344, "EPHEMERIS_TYPE": 0, "CLASSIFICATION_TYPE": "U", "NORAD_CAT_ID": 58663, "ELEMENT_SET_NO": 999, "REV_AT_EPOCH": 10874, "BSTAR": 0.00046217, "MEAN_MOTION_DOT": 0.00012403, "MEAN_MOTION_DDOT": 0}, "tle": {"line1": "1 58663U 23208D   25346.15475174  .00012403  00000+0  46217-3 0  9999", "line2": "2 58663  97.4377  97.2520 0002694 290.1606  69.9344 15.27588590108742"}}, "geometry": {"type": "Point", "coordinates": [95.53280008368269, 15.303815554433896]}}, {"type": "Feature", "properties": {"norad_id": 58700, "name": "TIANMU-1 15", "group": "weather", "lat": 31.905617538579605, "lon": -7.362883745793063, "alt_km": 493.10600982211963, "timestamp": "2025-12-12T11:38:31.059658+00:00", "meta": {"OBJECT_NAME": "TIANMU-1 15", "OBJECT_ID": "2024-004A", "EPOCH": "2025-12-11T12:56:40.540704", "MEAN_MOTION": 15.24670451, "ECCENTRICITY": 0.00052437, "INCLINATION": 97.4631, "RA_OF_ASC_NODE": 167.0136, "ARG_OF_PERICENTER": 303.7498, "MEAN_ANOMALY": 56.324, "EPHEMERIS_TYPE": 0, "CLASSIFICATION_TYPE": "U", "NORAD_CAT_ID": 58700, "ELEMENT_SET_NO": 999, "REV_AT_EPOCH": 10716, "BSTAR": 0.00086402607, "MEAN_MOTION_DOT": 0.00021326, "MEAN_MOTION_DDOT": 0}, "tle": {"line1": "1 58700U 24004A   25345.53935811  .00021326  00000+0  86403-3 0  9991", "line2": "2 58700  97.4631 167.0136 0005243 303.7498  56.3240 15.24670451107164"}}, "geometry": {"type": "Point", "coordinates": [-7.362883745793063, 31.905617538579605]}}, {"type": "Feature", "properties": {"norad_id": 58701, "name": "TIANMU-1 16", "group": "weather", "lat": -49.13313197823657, "lon": -21.362815045886062, "alt_km": 498.2773455286797, "timestamp": "2025-12-12T11:38:31.059668+00:00", "meta": {"OBJECT_NAME": "TIANMU-1 16", "OBJECT_ID": "2024-004B", "EPOCH": "2025-12-12T04:20:08.866752", "MEAN_MOTION": 15.24421814, "ECCENTRICITY": 0.0004498, "INCLINATION": 97.4572, "RA_OF_ASC_NODE": 167.0417, "ARG_OF_PERICENTER": 298.8812, "MEAN_ANOMALY": 61.1973, "EPHEMERIS_TYPE": 0, "CLASSIFICATION_TYPE": "U", "NORAD_CAT_ID": 58701, "ELEMENT_SET_NO": 999, "REV_AT_EPOCH": 10726, "BSTAR": 0.0004323, "MEAN_MOTION_DOT": 0.00010539, "MEAN_MOTION_DDOT": 0}, "tle": {"line1": "1 58701U 24004B   25346.18065818  .00010539  00000+0  43230-3 0  9990", "line2": "2 58701  97.4572 167.0417 0004498 298.8812  61.1973 15.24421814107261"}}, "geometry": {"type": "Point", "coordinates": [-21.362815045886062, -49.13313197823657]}}, {"type": "Feature", "properties": {"norad_id": 58702, "name": "TIANMU-1 17", "group": "weather", "lat": -45.463519584601194, "lon": 175.40802884673266, "alt_km": 496.6925678685802, "timestamp": "2025-12-12T11:38:31.059683+00:00", "meta": {"OBJECT_NAME": "TIANMU-1 17", "OBJECT_ID": "2024-004C", "EPOCH": "2025-12-12T03:57:59.308992", "MEAN_MOTION": 15.24465893, "ECCENTRICITY": 0.0003692, "INCLINATION": 97.4606, "RA_OF_ASC_NODE": 167.4361, "ARG_OF_PERICENTER": 303.1452, "MEAN_ANOMALY": 56.943, "EPHEMERIS_TYPE": 0, "CLASSIFICATION_TYPE": "U", "NORAD_CAT_ID": 58702, "ELEMENT_SET_NO": 999, "REV_AT_EPOCH": 10725, "BSTAR": 0.00040862, "MEAN_MOTION_DOT": 9.969e-05, "MEAN_MOTION_DDOT": 0}, "tle": {"line1": "1 58702U 24004C   25346.16526978  .00009969  00000+0  40862-3 0  9991", "line2": "2 58702  97.4606 167.4361 0003692 303.1452  56.9430 15.24465893107251"}}, "geometry": {"type": "Point", "coordinates": [175.40802884673266, -45.463519584601194]}}, {"type": "Feature", "properties": {"norad_id": 58703, "name": "TIANMU-1 18", "group": "weather", "lat": 45.109480436895325, "lon": 160.38920964641082, "alt_km": 489.0949147454685, "timestamp": "2025-12-12T11:38:31.059695+00:00", "meta": {"OBJECT_NAME": "TIANMU-1 18", "OBJECT_ID": "2024-004D", "EPOCH": "2025-12-12T05:08:28.506048", "MEAN_MOTION": 15.24453807, "ECCENTRICITY": 0.000306, "INCLINATION": 97.4622, "RA_OF_ASC_NODE": 167.6801, "ARG_OF_PERICENTER": 302.9859, "MEAN_ANOMALY": 57.1084, "EPHEMERIS_TYPE": 0, "CLASSIFICATION_TYPE": "U", "NORAD_CAT_ID": 58703, "ELEMENT_SET_NO": 999, "REV_AT_EPOCH": 10726, "BSTAR": 0.00040528, "MEAN_MOTION_DOT": 9.883e-05, "MEAN_MOTION_DDOT": 0}, "tle": {"line1": "1 58703U 24004D   25346.21421882  .00009883  00000+0  40528-3 0  9990", "line2": "2 58703  97.4622 167.6801 0003060 302.9859  57.1084 15.24453807107269"}}, "geometry": {"type": "Point", "coordinates": [160.38920964641082, 45.109480436895325]}}, {"type": "Feature", "properties": {"norad_id": 58990, "name": "INSAT-3DS", "group": "weather", "lat": -0.021739316480181514, "lon": -21.849792652294415, "alt_km": 35784.420265653185, "timestamp": "2025-12-12T11:38:31.059706+00:00", "meta": {"OBJECT_NAME": "INSAT-3DS", "OBJECT_ID": "2024-033A", "EPOCH": "2025-12-12T03:35:51.341856", "MEAN_MOTION": 1.00272558, "ECCENTRICITY": 0.0001352, "INCLINATION": 0.0397, "RA_OF_ASC_NODE": 135.7539, "ARG_OF_PERICENTER": 127.2447, "MEAN_ANOMALY": 314.1455, "EPHEMERIS_TYPE": 0, "CLASSIFICATION_TYPE": "U", "NORAD_CAT_ID": 58990, "ELEMENT_SET_NO": 999, "REV_AT_EPOCH": 4519, "BSTAR": 0, "MEAN_MOTION_DOT": -1.47e-06, "MEAN_MOTION_DDOT": 0}, "tle": {"line1": "1 58990U 24033A   25346.14989979 -.00000147  00000+0  00000+0 0  9990", "line2": "2 58990   0.0397 135.7539 0001352 127.2447 314.1455  1.00272558 45195"}}, "geometry": {"type": "Point", "coordinates": [-21.849792652294415, -0.021739316480181514]}}, {"type": "Feature", "properties": {"norad_id": 59051, "name": "METEOR-M2 4", "group": "weather", "lat": -45.65828584118186, "lon": -47.61284698616075, "alt_km": 820.3909924447162, "timestamp": "2025-12-12T11:38:31.059717+00:00", "meta": {"OBJECT_NAME": "METEOR-M2 4", "OBJECT_ID": "2024-039A", "EPOCH": "2025-12-12T05:06:22.278240", "MEAN_MOTION": 14.22401147, "ECCENTRICITY": 0.0007067, "INCLINATION": 98.6765, "RA_OF_ASC_NODE": 303.1299, "ARG_OF_PERICENTER": 0.1246, "MEAN_ANOMALY": 359.9932, "EPHEMERIS_TYPE": 0, "CLASSIFICATION_TYPE": "U", "NORAD_CAT_ID": 59051, "ELEMENT_SET_NO": 999, "REV_AT_EPOCH": 9268, "BSTAR": 5.5744e-05, "MEAN_MOTION_DOT": 8e-07, "MEAN_MOTION_DDOT": 0}, "tle": {"line1": "1 59051U 24039A   25346.21275785  .00000080  00000+0  55744-4 0  9991", "line2": "2 59051  98.6765 303.1299 0007067   0.1246 359.9932 14.22401147 92684"}}, "geometry": {"type": "Point", "coordinates": [-47.61284698616075, -45.65828584118186]}}, {"type": "Feature", "properties": {"norad_id": 60133, "name": "GOES 19", "group": "weather", "lat": 0.0034195401743469258, "lon": -179.14316131460924, "alt_km": 35789.86278154768, "timestamp": "2025-12-12T11:38:31.059729+00:00", "meta": {"OBJECT_NAME": "GOES 19", "OBJECT_ID": "2024-119A", "EPOCH": "2025-12-12T02:51:03.132000", "MEAN_MOTION": 1.00270917, "ECCENTRICITY": 0.0001288, "INCLINATION": 0.0282, "RA_OF_ASC_NODE": 122.993, "ARG_OF_PERICENTER": 188.2913, "MEAN_ANOMALY": 97.3633, "EPHEMERIS_TYPE": 0, "CLASSIFICATION_TYPE": "U", "NORAD_CAT_ID": 60133, "ELEMENT_SET_NO": 999, "REV_AT_EPOCH": 508, "BSTAR": 0, "MEAN_MOTION_DOT": -2.39e-06, "MEAN_MOTION_DDOT": 0}, "tle": {"line1": "1 60133U 24119A   25346.11878625 -.00000239  00000+0  00000+0 0  9991", "line2": "2 60133   0.0282 122.9930 0001288 188.2913  97.3633  1.00270917  5085"}}, "geometry": {"type": "Point", "coordinates": [-179.14316131460924, 0.0034195401743469258]}}, {"type": "Feature", "properties": {"norad_id": 65815, "name": "FENGYUN 3H", "group": "weather", "lat": -14.939774333088353, "lon": 103.75080555413133, "alt_km": 830.4345564173946, "timestamp": "2025-12-12T11:38:31.059739+00:00", "meta": {"OBJECT_NAME": "FENGYUN 3H", "OBJECT_ID": "2025-219A", "EPOCH": "2025-12-12T02:16:13.674144", "MEAN_MOTION": 14.19904461, "ECCENTRICITY": 6.16e-05, "INCLINATION": 98.6584, "RA_OF_ASC_NODE": 285.699, "ARG_OF_PERICENTER": 90.8199, "MEAN_ANOMALY": 269.3048, "EPHEMERIS_TYPE": 0, "CLASSIFICATION_TYPE": "U", "NORAD_CAT_ID": 65815, "ELEMENT_SET_NO": 999, "REV_AT_EPOCH": 1083, "BSTAR": 0.00010581, "MEAN_MOTION_DOT": 1.81e-06, "MEAN_MOTION_DDOT": 0}, "tle": {"line1": "1 65815U 25219A   25346.09460271  .00000181  00000+0  10581-3 0  9990", "line2": "2 65815  98.6584 285.6990 0000616  90.8199 269.3048 14.19904461 10838"}}, "geometry": {"type": "Point", "coordinates": [103.75080555413133, -14.939774333088353]}}]}